{
    "links": {
        "self": "http://www.neowsapp.com/rest/v1/neo/3736505?api_key=iIulBulltgU6a56xZRHN4H3l9WmuAYTsLGpBGhQ2"
    },
    "id": "3736505",
    "neo_reference_id": "3736505",
    "name": "(2015 XO261)",
    "designation": "2015 XO261",
    "nasa_jpl_url": "http://ssd.jpl.nasa.gov/sbdb.cgi?sstr=3736505",
    "absolute_magnitude_h": 21.4,
    "estimated_diameter": {
        "kilometers": {
            "estimated_diameter_min": 0.1394938229,
            "estimated_diameter_max": 0.3119176705
        },
        "meters": {
            "estimated_diameter_min": 139.4938229344,
            "estimated_diameter_max": 311.9176705226
        },
        "miles": {
            "estimated_diameter_min": 0.0866774163,
            "estimated_diameter_max": 0.1938165949
        },
        "feet": {
            "estimated_diameter_min": 457.6569140361,
            "estimated_diameter_max": 1023.3519701574
        }
    },
    "is_potentially_hazardous_asteroid": false,
    "close_approach_data": [
        {
            "close_approach_date": "2015-11-08",
            "close_approach_date_full": "2015-Nov-08 21:32",
            "epoch_date_close_approach": 1447018320000,
            "relative_velocity": {
                "kilometers_per_second": "7.5153796303",
                "kilometers_per_hour": "27055.366668992",
                "miles_per_hour": "16811.1526949634"
            },
            "miss_distance": {
                "astronomical": "0.3152586175",
                "lunar": "122.6356022075",
                "kilometers": "47162017.677144725",
                "miles": "29305118.888158205"
            },
            "orbiting_body": "Earth"
        },
        {
            "close_approach_date": "2032-11-21",
            "close_approach_date_full": "2032-Nov-21 08:03",
            "epoch_date_close_approach": 1984636980000,
            "relative_velocity": {
                "kilometers_per_second": "8.5260979865",
                "kilometers_per_hour": "30693.952751428",
                "miles_per_hour": "19072.0285860193"
            },
            "miss_distance": {
                "astronomical": "0.287238692",
                "lunar": "111.735851188",
                "kilometers": "42970296.50478604",
                "miles": "26700504.129245752"
            },
            "orbiting_body": "Earth"
        }
    ],
    "orbital_data": {
        "orbit_id": "8",
        "orbit_determination_date": "2017-04-06 08:29:56",
        "first_observation_date": "2015-12-09",
        "last_observation_date": "2016-02-06",
        "data_arc_in_days": 59,
        "observations_used": 30,
        "orbit_uncertainty": "7",
        "minimum_orbit_intersection": ".146896",
        "jupiter_tisserand_invariant": "4.204",
        "epoch_osculation": "2459000.5",
        "eccentricity": ".3128027637571129",
        "semi_major_axis": "1.647433779762121",
        "inclination": "11.91918282658193",
        "ascending_node_longitude": "51.52587112740574",
        "orbital_period": "772.3432884569702",
        "perihelion_distance": "1.132111940345703",
        "perihelion_argument": "11.07868147103264",
        "aphelion_distance": "2.162755619178539",
        "perihelion_time": "2458913.387570286472",
        "mean_anomaly": "40.60432085779338",
        "mean_motion": ".4661139746798704",
        "equinox": "J2000",
        "orbit_class": {
            "orbit_class_type": "AMO",
            "orbit_class_description": "Near-Earth asteroid orbits similar to that of 1221 Amor",
            "orbit_class_range": "1.017 AU < q (perihelion) < 1.3 AU"
        }
    },
    "is_sentry_object": false
}